{
  "type": "FeatureCollection",
  "features": [
    {
      "type": "Feature",
      "properties": {
        "norad_id": 54259,
        "name": "EUTELSAT 10B",
        "group": "eutelsat",
        "lat": -0.06365077690207736,
        "lon": -22.189092021735654,
        "alt_km": 35789.26029291617,
        "timestamp": "2025-12-26T15:29:39.109810+00:00",
        "meta_object_name": "EUTELSAT 10B",
        "meta_object_id": "2022-157A",
        "meta_epoch": "2025-12-25T22:01:38.544672",
        "meta_mean_motion": 1.00270219,
        "meta_eccentricity": 6.649e-05,
        "meta_inclination": 0.0617,
        "meta_ra_of_asc_node": 95.4372,
        "meta_arg_of_pericenter": 60.6723,
        "meta_mean_anomaly": 278.9927,
        "meta_ephemeris_type": 0,
        "meta_classification_type": "U",
        "meta_norad_cat_id": 54259,
        "meta_element_set_no": 999,
        "meta_rev_at_epoch": 1128,
        "meta_bstar": 0,
        "meta_mean_motion_dot": 9e-07,
        "meta_mean_motion_ddot": 0,
        "tle_line1": "1 54259U 22157A   25359.91780723  .00000090  00000+0  00000+0 0  9990",
        "tle_line2": "2 54259   0.0617  95.4372 0000664  60.6723 278.9927  1.00270219 11289"
      },
      "geometry": {
        "type": "Point",
        "coordinates": [
          -22.189092021735654,
          -0.06365077690207736
        ]
      }
    },
    {
      "type": "Feature",
      "properties": {
        "norad_id": 59346,
        "name": "EUTELSAT 36D",
        "group": "eutelsat",
        "lat": -0.014597788951312807,
        "lon": 3.6533115527600115,
        "alt_km": 35787.39356766398,
        "timestamp": "2025-12-26T15:29:39.109822+00:00",
        "meta_object_name": "EUTELSAT 36D",
        "meta_object_id": "2024-059A",
        "meta_epoch": "2025-12-26T02:56:01.083264",
        "meta_mean_motion": 1.00263096,
        "meta_eccentricity": 4.929e-05,
        "meta_inclination": 0.0182,
        "meta_ra_of_asc_node": 36.9532,
        "meta_arg_of_pericenter": 25.8871,
        "meta_mean_anomaly": 111.9168,
        "meta_ephemeris_type": 0,
        "meta_classification_type": "U",
        "meta_norad_cat_id": 59346,
        "meta_element_set_no": 999,
        "meta_rev_at_epoch": 641,
        "meta_bstar": 0,
        "meta_mean_motion_dot": 1.77e-06,
        "meta_mean_motion_ddot": 0,
        "tle_line1": "1 59346U 24059A   25360.12223476  .00000177  00000+0  00000+0 0  9993",
        "tle_line2": "2 59346   0.0182  36.9532 0000492  25.8871 111.9168  1.00263096  6419"
      },
      "geometry": {
        "type": "Point",
        "coordinates": [
          3.6533115527600115,
          -0.014597788951312807
        ]
      }
    }
  ]
}